[{"OBJECT_NAME":"HAWK-2C","OBJECT_ID":"2021-006CT","EPOCH":"2026-03-09T16:13:22.454976","MEAN_MOTION":15.33286436,"ECCENTRICITY":0.0006943,"INCLINATION":97.2417,"RA_OF_ASC_NODE":114.9961,"ARG_OF_PERICENTER":184.0877,"MEAN_ANOMALY":176.031,"EPHEMERIS_TYPE":0,"CLASSIFICATION_TYPE":"U","NORAD_CAT_ID":47502,"ELEMENT_SET_NO":999,"REV_AT_EPOCH":28424,"BSTAR":0.00025492914,"MEAN_MOTION_DOT":8.129e-5,"MEAN_MOTION_DDOT":0},{"OBJECT_NAME":"STARLINK-35441","OBJECT_ID":"2025-223R","EPOCH":"2026-03-09T21:27:37.342080","MEAN_MOTION":15.30195204,"ECCENTRICITY":0.00012387,"INCLINATION":53.159,"RA_OF_ASC_NODE":293.4604,"ARG_OF_PERICENTER":71.0703,"MEAN_ANOMALY":289.0432,"EPHEMERIS_TYPE":0,"CLASSIFICATION_TYPE":"U","NORAD_CAT_ID":65869,"ELEMENT_SET_NO":999,"REV_AT_EPOCH":2423,"BSTAR":0.00077016075,"MEAN_MOTION_DOT":0.00022517,"MEAN_MOTION_DDOT":0}]
